MALLIGYONG-1            
1 58400U 23179A   24237.18122126  .00009512  00000+0  41632-3 0  9995
2 58400  97.3924 122.8828 0001134  41.1265 319.0056 15.22253285 42063
